NORAD_CAT_ID,OBJECT_NAME,OBJECT_TYPE,EPOCH,MEAN_MOTION,ECCENTRICITY,INCLINATION,RA_OF_ASC_NODE,ARG_OF_PERICENTER,MEAN_ANOMALY,BSTAR,MEAN_MOTION_DOT,MEAN_MOTION_DDOT,TLE_LINE0,TLE_LINE1,TLE_LINE2,SEMIMAJOR_AXIS,PERIOD,APOGEE,PERIGEE,DECAYED
52456.0,STARLINK-3896,PAYLOAD,2023-12-29 10:59:53,15.08852592,0.0001568,53.2187,65.9876,87.6461,272.4711,2.3405e-05,8.5e-07,0.0,0 STARLINK-3896,1 52456U 22049F   23363.45825310  .00000085  00000-0  23405-4 0  9995,2 52456  53.2187  65.9876 0001568  87.6461 272.4711 15.08852592 91316,6917.842,95.437,540.792,538.622,0.0
52456.0,STARLINK-3896,PAYLOAD,2023-12-30 04:29:08,15.08837788,0.0001719,53.2174,62.7211,109.3102,250.8076,0.00021275,3.099e-05,0.0,0 STARLINK-3896,1 52456U 22049F   23364.18690054  .00003099  00000-0  21275-3 0  9991,2 52456  53.2174  62.7211 0001719 109.3102 250.8076 15.08837788 91428,6917.887,95.438,540.941,538.563,0.0
52456.0,STARLINK-3896,PAYLOAD,2023-12-30 14:01:26,15.08844339,0.0001443,53.2171,60.9326,115.3922,244.7219,0.00018254,2.619e-05,0.0,0 STARLINK-3896,1 52456U 22049F   23364.58433384  .00002619  00000-0  18254-3 0  9996,2 52456  53.2171  60.9326 0001443 115.3922 244.7219 15.08844339 91323,6917.867,95.437,540.73,538.734,0.0
52456.0,STARLINK-3896,PAYLOAD,2023-12-31 09:06:04,15.08838307,0.0001441,53.2176,57.3618,99.2319,260.8836,-3.795e-05,-8.92e-06,0.0,0 STARLINK-3896,1 52456U 22049F   23365.37922416 -.00000892  00000-0 -37950-4 0  9991,2 52456  53.2176  57.3618 0001441  99.2319 260.8836 15.08838307 91603,6917.886,95.438,540.747,538.754,0.0
52456.0,STARLINK-3896,PAYLOAD,2024-01-01 08:56:51,15.08840373,0.0001183,53.2177,52.9,109.6501,250.4619,0.0001082,1.435e-05,0.0,0 STARLINK-3896,1 52456U 22049F   24001.37281924  .00001435  00000-0  10820-3 0  9999,2 52456  53.2177  52.9000 0001183 109.6501 250.4619 15.08840373 91590,6917.879,95.438,540.563,538.926,0.0
52456.0,STARLINK-3896,PAYLOAD,2024-01-02 02:26:06,15.08836301,0.0001479,53.2182,49.6344,96.3883,263.7278,0.00011109,1.48e-05,0.0,0 STARLINK-3896,1 52456U 22049F   24002.10146338  .00001480  00000-0  11109-3 0  9991,2 52456  53.2182  49.6344 0001479  96.3883 263.7278 15.08836301 91867,6917.892,95.438,540.78,538.734,0.0
52456.0,STARLINK-3896,PAYLOAD,2024-01-02 10:23:01,15.088408,0.0001433,53.218,48.1471,85.9548,274.1608,0.00013393,1.844e-05,0.0,0 STARLINK-3896,1 52456U 22049F   24002.43266157  .00001844  00000-0  13393-3 0  9990,2 52456  53.2180  48.1471 0001433  85.9548 274.1608 15.08840800 91752,6917.878,95.438,540.734,538.752,0.0
52456.0,STARLINK-3896,PAYLOAD,2024-01-03 10:13:49,15.08861294,0.0001695,53.2175,43.687,100.6718,259.4465,-0.00035262,-5.899e-05,0.0,0 STARLINK-3896,1 52456U 22049F   24003.42626221 -.00005899  00000-0 -35262-3 0  9997,2 52456  53.2175  43.6870 0001695 100.6718 259.4465 15.08861294 92065,6917.815,95.436,540.853,538.508,0.0
52456.0,STARLINK-3896,PAYLOAD,2024-01-03 22:56:54,15.0883168,0.0001555,53.2176,41.308,76.7827,283.3339,0.00015629,2.2e-05,0.0,0 STARLINK-3896,1 52456U 22049F   24003.95618685  .00002200  00000-0  15629-3 0  9996,2 52456  53.2176  41.3080 0001555  76.7827 283.3339 15.08831680 92144,6917.906,95.438,540.847,538.695,0.0
52456.0,STARLINK-3896,PAYLOAD,2024-01-04 08:29:12,15.0884418,0.0001586,53.2174,39.5239,80.0224,280.0947,9.2675e-05,1.187e-05,0.0,0 STARLINK-3896,1 52456U 22049F   24004.35362200  .00001187  00000-0  92675-4 0  9990,2 52456  53.2174  39.5239 0001586  80.0224 280.0947 15.08844180 92205,6917.868,95.437,540.83,538.635,0.0
52456.0,STARLINK-3896,PAYLOAD,2024-01-05 05:09:14,15.0883566,0.0001496,53.2173,35.6582,82.2867,277.8295,8.8987e-05,1.128e-05,0.0,0 STARLINK-3896,1 52456U 22049F   24005.21474736  .00001128  00000-0  88987-4 0  9990,2 52456  53.2173  35.6582 0001496  82.2867 277.8295 15.08835660 92336,6917.894,95.438,540.794,538.724,0.0
52456.0,STARLINK-3896,PAYLOAD,2024-01-05 08:20:00,15.08837433,0.0001529,53.2173,35.0637,79.5226,280.5939,0.00010177,1.332e-05,0.0,0 STARLINK-3896,1 52456U 22049F   24005.34722655  .00001332  00000-0  10177-3 0  9992,2 52456  53.2173  35.0637 0001529  79.5226 280.5939 15.08837433 92196,6917.888,95.438,540.811,538.695,0.0
52456.0,STARLINK-3896,PAYLOAD,2024-01-06 11:21:33,15.08844669,0.0001516,53.2171,30.0082,84.5078,275.6087,4.6285e-05,4.49e-06,0.0,0 STARLINK-3896,1 52456U 22049F   24006.47330228  .00000449  00000-0  46285-4 0  9996,2 52456  53.2171  30.0082 0001516  84.5078 275.6087 15.08844669 92525,6917.866,95.437,540.78,538.682,0.0
52456.0,STARLINK-3896,PAYLOAD,2024-01-07 04:50:48,15.08836978,0.0001553,53.2168,26.7363,86.0055,274.1115,4.5075e-05,4.29e-06,0.0,0 STARLINK-3896,1 52456U 22049F   24007.20194769  .00000429  00000-0  45075-4 0  9990,2 52456  53.2168  26.7363 0001553  86.0055 274.1115 15.08836978 92630,6917.89,95.438,540.829,538.68,0.0
52456.0,STARLINK-3896,PAYLOAD,2024-01-07 08:01:34,15.08836974,0.0001537,53.2172,26.1416,91.0895,269.0273,4.4265e-05,4.17e-06,0.0,0 STARLINK-3896,1 52456U 22049F   24007.33442763  .00000417  00000-0  44265-4 0  9991,2 52456  53.2172  26.1416 0001537  91.0895 269.0273 15.08836974 92496,6917.89,95.438,540.818,538.691,0.0
52456.0,STARLINK-3896,PAYLOAD,2024-01-08 06:16:58,15.08840651,0.0001519,53.2174,21.9774,88.551,271.5656,4.88e-05,4.89e-06,0.0,0 STARLINK-3896,1 52456U 22049F   24008.26178626  .00000489  00000-0  48800-4 0  9996,2 52456  53.2174  21.9774 0001519  88.5510 271.5656 15.08840651 92796,6917.878,95.438,540.794,538.693,0.0
52456.0,STARLINK-3896,PAYLOAD,2024-01-09 06:07:45,15.08838333,0.0001647,53.2191,17.5206,98.4177,261.7001,6.0902e-05,6.81e-06,0.0,0 STARLINK-3896,1 52456U 22049F   24009.25538951  .00000681  00000-0  60902-4 0  9998,2 52456  53.2191  17.5206 0001647  98.4177 261.7001 15.08838333 92785,6917.885,95.438,540.89,538.611,0.0
52456.0,STARLINK-3896,PAYLOAD,2024-01-10 04:23:09,15.08839811,0.0001699,53.2192,13.3566,103.4066,256.7115,3.2722e-05,2.33e-06,0.0,0 STARLINK-3896,1 52456U 22049F   24010.18275086  .00000233  00000-0  32722-4 0  9991,2 52456  53.2192  13.3566 0001699 103.4066 256.7115 15.08839811 93086,6917.881,95.438,540.921,538.571,0.0
52456.0,STARLINK-3896,PAYLOAD,2024-01-10 09:09:18,15.08843644,0.0001633,53.2186,12.4618,99.1019,261.0158,6.3719e-05,7.26e-06,0.0,0 STARLINK-3896,1 52456U 22049F   24010.38146737  .00000726  00000-0  63719-4 0  9990,2 52456  53.2186  12.4618 0001633  99.1019 261.0158 15.08843644 92954,6917.869,95.437,540.864,538.605,0.0
52456.0,STARLINK-3896,PAYLOAD,2024-01-11 05:49:19,15.0884161,0.0001596,53.2179,8.594,117.742,242.3734,6.8931e-05,8.09e-06,0.0,0 STARLINK-3896,1 52456U 22049F   24011.24258845  .00000809  00000-0  68931-4 0  9993,2 52456  53.2179   8.5940 0001596 117.7420 242.3734 15.08841610 93247,6917.875,95.437,540.845,538.636,0.0
52456.0,STARLINK-3896,PAYLOAD,2024-01-11 09:00:05,15.08846022,0.000152,53.2182,7.9983,100.1279,259.9884,0.00011717,1.578e-05,0.0,0 STARLINK-3896,1 52456U 22049F   24011.37506563  .00001578  00000-0  11717-3 0  9993,2 52456  53.2182   7.9983 0001520 100.1279 259.9884 15.08846022 93103,6917.862,95.437,540.778,538.675,0.0
52456.0,STARLINK-3896,PAYLOAD,2024-01-12 04:04:43,15.08840091,0.0001647,53.2188,4.4265,125.3824,234.7322,1.5407e-05,-4.3e-07,0.0,0 STARLINK-3896,1 52456U 22049F   24012.16995242 -.00000043  00000-0  15407-4 0  9995,2 52456  53.2188   4.4265 0001647 125.3824 234.7322 15.08840091 93387,6917.88,95.438,540.884,538.606,0.0
52456.0,STARLINK-3896,PAYLOAD,2024-01-12 05:40:06,15.08843108,0.0001554,53.2182,4.1303,117.9192,242.1958,2.8472e-05,1.65e-06,0.0,0 STARLINK-3896,1 52456U 22049F   24012.23619103  .00000165  00000-0  28472-4 0  9992,2 52456  53.2182   4.1303 0001554 117.9192 242.1958 15.08843108 93237,6917.871,95.437,540.811,538.661,0.0
52456.0,STARLINK-3896,PAYLOAD,2024-01-13 05:30:53,15.08848322,0.0001487,53.2179,359.6741,93.6721,266.4441,0.00011447,1.535e-05,0.0,0 STARLINK-3896,1 52456U 22049F   24013.22978956  .00001535  00000-0  11447-3 0  9991,2 52456  53.2179 359.6741 0001487  93.6721 266.4441 15.08848322 93543,6917.855,95.437,540.749,538.691,0.0
52456.0,STARLINK-3896,PAYLOAD,2024-01-14 05:21:41,15.08842667,0.0001602,53.2181,355.2152,122.284,237.8307,0.00012751,1.742e-05,0.0,0 STARLINK-3896,1 52456U 22049F   24014.22339382  .00001742  00000-0  12751-3 0  9995,2 52456  53.2181 355.2152 0001602 122.2840 237.8307 15.08842667 93699,6917.872,95.437,540.845,538.629,0.0
52456.0,STARLINK-3896,PAYLOAD,2024-01-14 08:32:27,15.08844494,0.0001568,53.2174,354.6198,113.6689,246.4468,0.00017187,2.449e-05,0.0,0 STARLINK-3896,1 52456U 22049F   24014.35587498  .00002449  00000-0  17187-3 0  9995,2 52456  53.2174 354.6198 0001568 113.6689 246.4468 15.08844494 93559,6917.867,95.437,540.816,538.647,0.0
52456.0,STARLINK-3896,PAYLOAD,2024-01-14 21:15:33,15.08839544,0.000157,53.2175,352.2396,108.1761,251.9402,4.8288e-05,4.81e-06,0.0,0 STARLINK-3896,1 52456U 22049F   24014.88579863  .00000481  00000-0  48288-4 0  9991,2 52456  53.2175 352.2396 0001570 108.1761 251.9402 15.08839544 93635,6917.882,95.438,540.833,538.661,0.0
52456.0,STARLINK-3896,PAYLOAD,2024-01-15 08:23:14,15.08848312,0.0001853,53.2189,350.1561,117.207,242.9111,0.00015532,2.185e-05,0.0,0 STARLINK-3896,1 52456U 22049F   24015.34947032  .00002185  00000-0  15532-3 0  9998,2 52456  53.2189 350.1561 0001853 117.2070 242.9111 15.08848312 93864,6917.855,95.437,541.002,538.438,0.0
52456.0,STARLINK-3896,PAYLOAD,2024-01-15 22:41:44,15.08802813,0.0001777,53.2178,347.4782,102.3929,257.7262,0.0008926,0.00013932,0.0,0 STARLINK-3896,1 52456U 22049F   24015.94565577  .00013932  00000-0  89260-3 0  9995,2 52456  53.2178 347.4782 0001777 102.3929 257.7262 15.08802813 93798,6917.994,95.44,541.088,538.63,0.0
52456.0,STARLINK-3896,PAYLOAD,2024-01-16 00:17:06,15.08828863,0.0001046,53.2182,347.1864,100.814,259.297,-0.00012287,-2.242e-05,0.0,0 STARLINK-3896,1 52456U 22049F   24016.01188377 -.00002242  00000-0 -12287-3 0  9992,2 52456  53.2182 347.1864 0001046 100.8140 259.2970 15.08828863 93963,6917.914,95.438,540.503,539.056,0.0
